[{"OBJECT_NAME":"STARLINK-5782","OBJECT_ID":"2023-042BA","EPOCH":"2026-03-09T08:32:18.528000","MEAN_MOTION":15.02537308,"ECCENTRICITY":0.00014693,"INCLINATION":43.0031,"RA_OF_ASC_NODE":44.6035,"ARG_OF_PERICENTER":276.5951,"MEAN_ANOMALY":83.4724,"EPHEMERIS_TYPE":0,"CLASSIFICATION_TYPE":"U","NORAD_CAT_ID":56034,"ELEMENT_SET_NO":999,"REV_AT_EPOCH":16301,"BSTAR":-2.9023325e-5,"MEAN_MOTION_DOT":-5.96e-6,"MEAN_MOTION_DDOT":0},{"OBJECT_NAME":"CZ-6A DEB","OBJECT_ID":"2022-151BY","EPOCH":"2026-03-09T19:54:31.094784","MEAN_MOTION":14.84736827,"ECCENTRICITY":0.00926882,"INCLINATION":98.6307,"RA_OF_ASC_NODE":160.4734,"ARG_OF_PERICENTER":65.7458,"MEAN_ANOMALY":295.3404,"EPHEMERIS_TYPE":0,"CLASSIFICATION_TYPE":"U","NORAD_CAT_ID":54329,"ELEMENT_SET_NO":999,"REV_AT_EPOCH":17696,"BSTAR":0.0019746466,"MEAN_MOTION_DOT":0.00018045,"MEAN_MOTION_DDOT":0}]
